NORAD_CAT_ID,OBJECT_NAME,OBJECT_TYPE,EPOCH,MEAN_MOTION,ECCENTRICITY,INCLINATION,RA_OF_ASC_NODE,ARG_OF_PERICENTER,MEAN_ANOMALY,BSTAR,MEAN_MOTION_DOT,MEAN_MOTION_DDOT,TLE_LINE0,TLE_LINE1,TLE_LINE2,SEMIMAJOR_AXIS,PERIOD,APOGEE,PERIGEE,DECAYED
52850.0,STARLINK-4187,PAYLOAD,2023-06-09 10:49:50,15.08828165,8.83e-05,53.2141,222.3228,39.2884,320.8172,-4.1575e-05,-9.49e-06,0.0,0 STARLINK-4187,1 52850U 22062W   23160.45127359 -.00000949  00000-0 -41575-4 0  9990,2 52850  53.2141 222.3228 0000883  39.2884 320.8172 15.08828165 54187,6917.917,95.438,540.392,539.171,0.0
52850.0,STARLINK-4187,PAYLOAD,2023-06-10 04:19:03,15.08853847,6.55e-05,53.2157,219.0503,48.9627,311.1421,-4.8899e-05,-1.066e-05,0.0,0 STARLINK-4187,1 52850U 22062W   23161.17989729 -.00001066  00000-0 -48899-4 0  9994,2 52850  53.2157 219.0503 0000655  48.9627 311.1421 15.08853847 54783,6917.838,95.437,540.156,539.25,0.0
52850.0,STARLINK-4187,PAYLOAD,2023-06-10 10:40:35,15.0886453,7.75e-05,53.2157,217.8606,53.6487,306.4577,-0.00010682,-1.988e-05,0.0,0 STARLINK-4187,1 52850U 22062W   23161.44484972 -.00001988  00000-0 -10682-3 0  9995,2 52850  53.2157 217.8606 0000775  53.6487 306.4577 15.08864530 54828,6917.805,95.436,540.207,539.134,0.0
52850.0,STARLINK-4187,PAYLOAD,2023-06-10 15:26:44,15.08844636,8.27e-05,53.2157,216.968,65.7608,294.3471,0.00026183,3.882e-05,0.0,0 STARLINK-4187,1 52850U 22062W   23161.64357461  .00003882  00000-0  26183-3 0  9995,2 52850  53.2157 216.9680 0000827  65.7608 294.3471 15.08844636 54853,6917.866,95.437,540.303,539.159,0.0
52850.0,STARLINK-4187,PAYLOAD,2023-06-10 20:12:55,15.08828241,2.31e-05,53.2154,216.0769,178.9808,181.1185,9.7104e-05,1.258e-05,0.0,0 STARLINK-4187,1 52850U 22062W   23161.84230703  .00001258  00000-0  97104-4 0  9993,2 52850  53.2154 216.0769 0000231 178.9808 181.1185 15.08828241 54395,6917.916,95.438,539.941,539.622,0.0
52850.0,STARLINK-4187,PAYLOAD,2023-06-11 04:09:51,15.08838669,7.49e-05,53.2155,214.5885,64.9609,295.1461,3.8898e-05,3.31e-06,0.0,0 STARLINK-4187,1 52850U 22062W   23162.17350762  .00000331  00000-0  38898-4 0  9994,2 52850  53.2155 214.5885 0000749  64.9609 295.1461 15.08838669 54933,6917.884,95.438,540.268,539.231,0.0
52850.0,STARLINK-4187,PAYLOAD,2023-06-11 13:42:09,15.08845166,8.08e-05,53.2154,212.8044,67.1555,292.9522,9.7447e-05,1.264e-05,0.0,0 STARLINK-4187,1 52850U 22062W   23162.57094211  .00001264  00000-0  97447-4 0  9993,2 52850  53.2154 212.8044 0000808  67.1555 292.9522 15.08845166 54507,6917.865,95.437,540.289,539.171,0.0
52850.0,STARLINK-4187,PAYLOAD,2023-06-11 15:17:32,15.08846405,8.08e-05,53.2152,212.507,68.6006,291.5072,0.00010903,1.448e-05,0.0,0 STARLINK-4187,1 52850U 22062W   23162.63718132  .00001448  00000-0  10903-3 0  9990,2 52850  53.2152 212.5070 0000808  68.6006 291.5072 15.08846405 55006,6917.861,95.437,540.285,539.167,0.0
52850.0,STARLINK-4187,PAYLOAD,2023-06-11 20:03:42,15.08841006,8.19e-05,53.2147,211.6147,63.7619,296.3458,5.5594e-05,5.97e-06,0.0,0 STARLINK-4187,1 52850U 22062W   23162.83590639  .00000597  00000-0  55594-4 0  9992,2 52850  53.2147 211.6147 0000819  63.7619 296.3458 15.08841006 54544,6917.877,95.437,540.309,539.176,0.0
52850.0,STARLINK-4187,PAYLOAD,2023-06-12 10:22:10,15.08843199,7.76e-05,53.2145,208.9374,60.626,299.481,-2.8959e-05,-7.49e-06,0.0,0 STARLINK-4187,1 52850U 22062W   23163.43206541 -.00000749  00000-0 -28959-4 0  9991,2 52850  53.2145 208.9374 0000776  60.6260 299.4810 15.08843199 54634,6917.871,95.437,540.272,539.199,0.0
52850.0,STARLINK-4187,PAYLOAD,2023-06-12 19:54:29,15.08844133,8.58e-05,53.2146,207.1538,66.4308,293.6774,-2.8226e-05,-7.37e-06,0.0,0 STARLINK-4187,1 52850U 22062W   23163.82950409 -.00000737  00000-0 -28226-4 0  9997,2 52850  53.2146 207.1538 0000858  66.4308 293.6774 15.08844133 54696,6917.868,95.437,540.326,539.139,0.0
52850.0,STARLINK-4187,PAYLOAD,2023-06-13 11:48:20,15.08838926,8.34e-05,53.2149,204.1808,71.0838,289.0244,3.9914e-05,3.48e-06,0.0,0 STARLINK-4187,1 52850U 22062W   23164.49190675  .00000348  00000-0  39914-4 0  9994,2 52850  53.2149 204.1808 0000834  71.0838 289.0244 15.08838926 55280,6917.884,95.438,540.326,539.172,0.0
52850.0,STARLINK-4187,PAYLOAD,2023-06-13 19:45:16,15.08841397,8.65e-05,53.2155,202.6944,74.6929,285.4158,3.9413e-05,3.4e-06,0.0,0 STARLINK-4187,1 52850U 22062W   23164.82310526  .00000340  00000-0  39413-4 0  9996,2 52850  53.2155 202.6944 0000865  74.6929 285.4158 15.08841397 54846,6917.876,95.437,540.34,539.143,0.0
52850.0,STARLINK-4187,PAYLOAD,2023-06-14 02:06:48,15.08840343,8.81e-05,53.2151,201.5044,74.6014,285.5076,0.00011303,1.512e-05,0.0,0 STARLINK-4187,1 52850U 22062W   23165.08806460  .00001512  00000-0  11303-3 0  9991,2 52850  53.2151 201.5044 0000881  74.6014 285.5076 15.08840343 54888,6917.879,95.438,540.354,539.135,0.0
52850.0,STARLINK-4187,PAYLOAD,2023-06-14 19:36:03,15.0884176,9.13e-05,53.2154,198.2333,73.4935,286.6158,9.4244e-05,1.213e-05,0.0,0 STARLINK-4187,1 52850U 22062W   23165.81670440  .00001213  00000-0  94244-4 0  9993,2 52850  53.2154 198.2333 0000913  73.4935 286.6158 15.08841760 54998,6917.875,95.437,540.372,539.108,0.0
52850.0,STARLINK-4187,PAYLOAD,2023-06-15 01:57:36,15.08837112,9.52e-05,53.2154,197.0442,74.3271,285.7826,7.0706e-05,8.38e-06,0.0,0 STARLINK-4187,1 52850U 22062W   23166.08166839  .00000838  00000-0  70706-4 0  9994,2 52850  53.2154 197.0442 0000952  74.3271 285.7826 15.08837112 55520,6917.889,95.438,540.413,539.096,0.0
52850.0,STARLINK-4187,PAYLOAD,2023-06-15 08:19:08,15.08837722,9.46e-05,53.2154,195.8545,74.6914,285.4182,4.6143e-05,4.47e-06,0.0,0 STARLINK-4187,1 52850U 22062W   23166.34662908  .00000447  00000-0  46143-4 0  9995,2 52850  53.2154 195.8545 0000946  74.6914 285.4182 15.08837722 55079,6917.887,95.438,540.407,539.098,0.0
52850.0,STARLINK-4187,PAYLOAD,2023-06-15 13:05:18,15.08839796,9.66e-05,53.2155,194.9624,74.5656,285.5443,6.0038e-05,6.68e-06,0.0,0 STARLINK-4187,1 52850U 22062W   23166.54534772  .00000668  00000-0  60038-4 0  9998,2 52850  53.2155 194.9624 0000966  74.5656 285.5443 15.08839796 55100,6917.881,95.438,540.414,539.078,0.0
52850.0,STARLINK-4187,PAYLOAD,2023-06-16 08:09:55,15.08848308,9.65e-05,53.2154,191.3936,74.8252,285.2847,0.0001033,1.357e-05,0.0,0 STARLINK-4187,1 52850U 22062W   23167.34021998  .00001357  00000-0  10330-3 0  9993,2 52850  53.2154 191.3936 0000965  74.8252 285.2847 15.08848308 55711,6917.855,95.437,540.388,539.052,0.0
52850.0,STARLINK-4187,PAYLOAD,2023-06-16 22:28:23,15.0883932,9.49e-05,53.2153,188.7172,74.9597,285.15,8.8468e-05,1.12e-05,0.0,0 STARLINK-4187,1 52850U 22062W   23167.93638438  .00001120  00000-0  88468-4 0  9997,2 52850  53.2153 188.7172 0000949  74.9597 285.1500 15.08839320 55806,6917.882,95.438,540.404,539.091,0.0
52850.0,STARLINK-4187,PAYLOAD,2023-06-17 11:11:28,15.08838566,9.64e-05,53.2153,186.3382,73.876,286.2338,5.2357e-05,5.46e-06,0.0,0 STARLINK-4187,1 52850U 22062W   23168.46630591  .00000546  00000-0  52357-4 0  9997,2 52850  53.2153 186.3382 0000964  73.8760 286.2338 15.08838566 55396,6917.885,95.438,540.417,539.083,0.0
52850.0,STARLINK-4187,PAYLOAD,2023-06-17 22:19:10,15.08837199,9.76e-05,53.2152,184.2562,74.5216,285.5884,1.248e-05,-8.9e-07,0.0,0 STARLINK-4187,1 52850U 22062W   23168.92998820 -.00000089  00000-0  12480-4 0  9996,2 52850  53.2152 184.2562 0000976  74.5216 285.5884 15.08837199 55950,6917.889,95.438,540.429,539.079,0.0
52850.0,STARLINK-4187,PAYLOAD,2023-06-18 07:51:29,15.08838236,9.97e-05,53.2152,182.472,75.1314,284.9789,-7.1741e-06,-4.02e-06,0.0,0 STARLINK-4187,1 52850U 22062W   23169.32742836 -.00000402  00000-0 -71741-5 0  9991,2 52850  53.2152 182.4720 0000997  75.1314 284.9789 15.08838236 55528,6917.886,95.438,540.44,539.061,0.0
52850.0,STARLINK-4187,PAYLOAD,2023-06-18 17:23:48,15.08837706,9.88e-05,53.2151,180.6875,70.3738,289.736,8.7947e-06,-1.48e-06,0.0,0 STARLINK-4187,1 52850U 22062W   23169.72486857 -.00000148  00000-0  87947-5 0  9994,2 52850  53.2151 180.6875 0000988  70.3738 289.7360 15.08837706 55580,6917.887,95.438,540.436,539.069,0.0
52850.0,STARLINK-4187,PAYLOAD,2023-06-19 01:20:44,15.08835358,9.76e-05,53.2153,179.2015,76.5929,283.5172,4.9044e-05,4.93e-06,0.0,0 STARLINK-4187,1 52850U 22062W   23170.05606943  .00000493  00000-0  49044-4 0  9999,2 52850  53.2153 179.2015 0000976  76.5929 283.5172 15.08835358 56124,6917.895,95.438,540.435,539.084,0.0
52850.0,STARLINK-4187,PAYLOAD,2023-06-19 07:42:16,15.08836684,9.85e-05,53.2153,178.0122,76.6104,283.4998,5.6749e-05,6.15e-06,0.0,0 STARLINK-4187,1 52850U 22062W   23170.32102924  .00000615  00000-0  56749-4 0  9995,2 52850  53.2153 178.0122 0000985  76.6104 283.4998 15.08836684 55673,6917.891,95.438,540.437,539.074,0.0
52850.0,STARLINK-4187,PAYLOAD,2023-06-19 17:14:35,15.08835879,9.89e-05,53.2154,176.2282,76.1345,283.9757,4.3034e-05,3.97e-06,0.0,0 STARLINK-4187,1 52850U 22062W   23170.71847120  .00000397  00000-0  43034-4 0  9992,2 52850  53.2154 176.2282 0000989  76.1345 283.9757 15.08835879 55737,6917.893,95.438,540.442,539.074,0.0
52850.0,STARLINK-4187,PAYLOAD,2023-06-20 09:08:27,15.08835744,0.0001004,53.2154,173.2547,75.9502,284.1601,6.43e-05,7.36e-06,0.0,0 STARLINK-4187,1 52850U 22062W   23171.38087276  .00000736  00000-0  64300-4 0  9990,2 52850  53.2154 173.2547 0001004  75.9502 284.1601 15.08835744 56327,6917.893,95.438,540.453,539.064,0.0
52850.0,STARLINK-4187,PAYLOAD,2023-06-21 07:23:51,15.08835256,0.0001026,53.2152,169.0916,77.75,282.3607,2.8711e-05,1.69e-06,0.0,0 STARLINK-4187,1 52850U 22062W   23172.30823759  .00000169  00000-0  28711-4 0  9993,2 52850  53.2152 169.0916 0001026  77.7500 282.3607 15.08835256 55974,6917.895,95.438,540.47,539.05,0.0
52850.0,STARLINK-4187,PAYLOAD,2023-06-21 16:56:10,15.0883721,0.0001054,53.2155,167.3077,78.9006,281.2105,5.5335e-05,5.93e-06,0.0,0 STARLINK-4187,1 52850U 22062W   23172.70567657  .00000593  00000-0  55335-4 0  9992,2 52850  53.2155 167.3077 0001054  78.9006 281.2105 15.08837210 56526,6917.889,95.438,540.483,539.025,0.0
